OBJECT_NAME,OBJECT_ID,EPOCH,MEAN_MOTION,ECCENTRICITY,INCLINATION,RA_OF_ASC_NODE,ARG_OF_PERICENTER,MEAN_ANOMALY,EPHEMERIS_TYPE,CLASSIFICATION_TYPE,NORAD_CAT_ID,ELEMENT_SET_NO,REV_AT_EPOCH,BSTAR,MEAN_MOTION_DOT,MEAN_MOTION_DDOT
STARLINK-35554,2025-245F,2026-07-02T14:29:53.140128,15.31720363,.0000927,53.1587,109.9044,97.2636,262.8471,0,U,66239,999,3869,.54781E-3,.16683E-3,0
STARLINK-35546,2025-245G,2026-07-02T14:32:25.161792,15.30198438,.0001468,53.1603,109.9125,103.4527,256.6637,0,U,66240,999,3885,.10102E-2,.29679E-3,0
STARLINK-35497,2025-245H,2026-07-02T01:53:55.060800,15.30214368,.00013358,53.1601,112.3128,80.5452,279.5700,0,U,66241,999,3872,.76338937E-3,.22328E-3,0
STARLINK-35480,2025-245J,2026-07-02T18:50:26.066688,15.30196941,.0001744,53.1607,109.6079,89.6081,270.5119,0,U,66242,999,3887,.42793E-3,.12335E-3,0
STARLINK-35495,2025-245K,2026-07-02T12:47:43.601856,15.30210549,.0000623,53.1605,110.1694,55.2683,304.8377,0,U,66243,999,3883,.1013E-2,.29772E-3,0
STARLINK-35517,2025-245L,2026-07-02T18:54:50.320224,15.30177458,.0001317,53.1613,108.9175,75.8811,284.2336,0,U,66244,999,3867,.82763E-3,.24216E-3,0
STARLINK-35503,2025-245M,2026-07-02T15:37:46.266816,15.30199184,.0002237,53.1602,110.1933,92.8083,267.3174,0,U,66245,999,3880,.84602E-3,.24781E-3,0
STARLINK-35434,2025-245N,2026-07-02T18:31:26.765184,15.31702551,.0002131,53.1597,108.8176,102.5281,257.5959,0,U,66246,999,3867,.47774E-3,.1449E-3,0
STARLINK-35481,2025-245P,2026-07-02T18:38:09.235392,15.31643210,.0001363,53.1599,108.8460,83.7897,276.3259,0,U,66247,999,3888,.12171E-2,.37525E-3,0
STARLINK-35416,2025-245Q,2026-07-02T19:45:14.537088,15.31692069,.0001334,53.1585,108.4241,113.0521,247.0621,0,U,66248,999,3883,.18837E-3,.5483E-4,0
STARLINK-35304,2025-245R,2026-07-02T14:30:21.780000,15.31721150,.0001074,53.1585,109.8979,81.9459,278.1664,0,U,66249,999,3863,.50812E-3,.15446E-3,0
STARLINK-35338,2025-245S,2026-07-02T19:38:31.466400,15.31712519,.0002896,53.1584,108.3973,91.8588,268.2745,0,U,66250,999,3879,.69194E-3,.21177E-3,0
STARLINK-35485,2025-245T,2026-07-02T19:31:48.001728,15.31706905,.0002501,53.1591,108.3688,105.8482,254.2795,0,U,66251,999,3867,.48364E-3,.14676E-3,0
STARLINK-35483,2025-245U,2026-07-02T01:52:23.628000,15.30226863,.00013751,53.1597,112.2979,93.3768,266.7390,0,U,66252,999,3872,.76568637E-3,.22405E-3,0
STARLINK-35486,2025-245V,2026-07-02T18:24:43.291008,15.31695335,.0002131,53.1580,108.7862,84.9510,275.1734,0,U,66253,999,3867,.70782E-3,.2166E-3,0
STARLINK-35488,2025-245W,2026-07-02T12:35:45.426048,15.31742677,.0000445,53.1598,110.1141,319.7987,40.2981,0,U,66254,999,3884,.53705E-3,.16359E-3,0
STARLINK-35616,2025-245X,2026-07-02T18:29:09.385728,15.30174632,.0001213,53.1597,109.5116,102.4262,257.6874,0,U,66255,999,3887,.67646E-3,.19713E-3,0
STARLINK-35619,2025-245Y,2026-07-02T18:56:21.045408,15.30178696,.0001763,53.1603,108.9162,96.2943,263.8258,0,U,66256,999,3888,.60179E-3,.17494E-3,0
STARLINK-35615,2025-245Z,2026-07-02T12:49:14.854080,15.30204670,.0000999,53.1604,110.1696,85.5430,274.5685,0,U,66257,999,3884,.75197E-3,.21981E-3,0
STARLINK-34650,2025-245AA,2026-07-02T14:27:51.807744,15.30215769,.0000817,53.1604,109.8852,88.0240,272.0854,0,U,66258,999,3885,.88452E-3,.25942E-3,0
STARLINK-35529,2025-245AB,2026-07-02T18:58:19.860960,15.31692115,.0001754,53.1605,108.9268,100.6302,259.4896,0,U,66259,999,3888,.81583E-3,.2503E-3,0
STARLINK-35420,2025-245AC,2026-07-02T18:18:00.273024,15.31703624,.0001447,53.1582,108.7505,115.3635,244.7517,0,U,66260,999,3888,.99279E-3,.30572E-3,0
STARLINK-35536,2025-245AD,2026-07-02T19:25:04.924128,15.31706961,.0001341,53.1578,108.3324,90.4370,269.6785,0,U,66261,999,3889,.11395E-2,.35169E-3,0
STARLINK-35487,2025-245AE,2026-07-02T18:44:53.286720,15.31694329,.0001685,53.1580,108.8629,87.1828,272.9367,0,U,66262,999,3883,.28586E-3,.8514E-4,0
STARLINK-35801,2025-247A,2026-07-02T19:43:15.059712,15.34381998,.0000852,53.1586,14.3510,72.8959,287.2137,0,U,66265,999,3869,.84982E-3,.28429E-3,0
STARLINK-35056,2025-247B,2026-07-02T20:00:03.000384,15.34379651,.0001579,53.1592,16.4529,96.4865,313.2498,0,U,66266,999,585,.18407E-3,.5844E-4,0
STARLINK-35550,2025-247C,2026-07-02T19:46:16.505760,15.34366773,.0001012,53.1557,14.3180,111.4415,248.6696,0,U,66267,999,3869,.73211E-3,.24414E-3,0
STARLINK-35069,2025-247D,2026-07-02T20:02:08.880000,15.34417699,.0000558,53.1590,15.8522,91.0704,269.0362,0,U,66268,999,3867,.15683E-2,.53015E-3,0
STARLINK-34910,2025-247E,2026-07-02T20:13:32.951136,15.34373490,.0001011,53.1590,14.4372,67.2609,292.8501,0,U,66269,999,3869,.12328E-2,.41472E-3,0
STARLINK-35757,2025-247F,2026-07-02T19:58:24.056832,15.34376520,.0000338,53.1609,14.4160,81.6380,278.4661,0,U,66270,999,3874,.83773E-3,.28012E-3,0
