STARLINK-35554          
1 66239U 25245F   26183.60408727  .00016683  00000+0  54781-3 0  9999
2 66239  53.1587 109.9044 0000927  97.2636 262.8471 15.31720363 38692
STARLINK-35546          
1 66240U 25245G   26183.60584678  .00029679  00000+0  10102-2 0  9998
2 66240  53.1603 109.9125 0001468 103.4527 256.6637 15.30198438 38857
STARLINK-35497          
1 66241U 25245H   26183.07910950  .00022328  00000+0  76339-3 0  9995
2 66241  53.1601 112.3128 0001335  80.5452 279.5700 15.30214368 38724
STARLINK-35480          
1 66242U 25245J   26183.78502392  .00012335  00000+0  42793-3 0  9995
2 66242  53.1607 109.6079 0001744  89.6081 270.5119 15.30196941 38874
STARLINK-35495          
1 66243U 25245K   26183.53314354  .00029772  00000+0  10130-2 0  9990
2 66243  53.1605 110.1694 0000623  55.2683 304.8377 15.30210549 38839
STARLINK-35517          
1 66244U 25245L   26183.78808241  .00024216  00000+0  82763-3 0  9991
2 66244  53.1613 108.9175 0001317  75.8811 284.2336 15.30177458 38679
STARLINK-35503          
1 66245U 25245M   26183.65122994  .00024781  00000+0  84602-3 0  9993
2 66245  53.1602 110.1933 0002237  92.8083 267.3174 15.30199184 38804
STARLINK-35434          
1 66246U 25245N   26183.77183756  .00014490  00000+0  47774-3 0  9995
2 66246  53.1597 108.8176 0002131 102.5281 257.5959 15.31702551 38679
STARLINK-35481          
1 66247U 25245P   26183.77649578  .00037525  00000+0  12171-2 0  9991
2 66247  53.1599 108.8460 0001363  83.7897 276.3259 15.31643210 38888
STARLINK-35416          
1 66248U 25245Q   26183.82308492  .00005483  00000+0  18837-3 0  9999
2 66248  53.1585 108.4241 0001334 113.0521 247.0621 15.31692069 38835
STARLINK-35304          
1 66249U 25245R   26183.60441875  .00015446  00000+0  50812-3 0  9998
2 66249  53.1585 109.8979 0001074  81.9459 278.1664 15.31721150 38637
STARLINK-35338          
1 66250U 25245S   26183.81841975  .00021177  00000+0  69194-3 0  9999
2 66250  53.1584 108.3973 0002896  91.8588 268.2745 15.31712519 38798
STARLINK-35485          
1 66251U 25245T   26183.81375002  .00014676  00000+0  48364-3 0  9995
2 66251  53.1591 108.3688 0002501 105.8482 254.2795 15.31706905 38671
STARLINK-35483          
1 66252U 25245U   26183.07805125  .00022405  00000+0  76569-3 0  9995
2 66252  53.1597 112.2979 0001375  93.3768 266.7390 15.30226863 38725
STARLINK-35486          
1 66253U 25245V   26183.76716772  .00021660  00000+0  70782-3 0  9994
2 66253  53.1580 108.7862 0002131  84.9510 275.1734 15.31695335 38676
STARLINK-35488          
1 66254U 25245W   26183.52483132  .00016359  00000+0  53705-3 0  9995
2 66254  53.1598 110.1141 0000445 319.7987  40.2981 15.31742677 38842
STARLINK-35616          
1 66255U 25245X   26183.77024752  .00019713  00000+0  67646-3 0  9998
2 66255  53.1597 109.5116 0001213 102.4262 257.6874 15.30174632 38870
STARLINK-35619          
1 66256U 25245Y   26183.78913247  .00017494  00000+0  60179-3 0  9994
2 66256  53.1603 108.9162 0001763  96.2943 263.8258 15.30178696 38889
STARLINK-35615          
1 66257U 25245Z   26183.53419970  .00021981  00000+0  75197-3 0  9994
2 66257  53.1604 110.1696 0000999  85.5430 274.5685 15.30204670 38841
STARLINK-34650          
1 66258U 25245AA  26183.60268296  .00025942  00000+0  88452-3 0  9995
2 66258  53.1604 109.8852 0000817  88.0240 272.0854 15.30215769 38850
STARLINK-35529          
1 66259U 25245AB  26183.79050765  .00025030  00000+0  81583-3 0  9992
2 66259  53.1605 108.9268 0001754 100.6302 259.4896 15.31692115 38887
STARLINK-35420          
1 66260U 25245AC  26183.76250316  .00030572  00000+0  99279-3 0  9993
2 66260  53.1582 108.7505 0001447 115.3635 244.7517 15.31703624 38881
STARLINK-35536          
1 66261U 25245AD  26183.80908477  .00035169  00000+0  11395-2 0  9996
2 66261  53.1578 108.3324 0001341  90.4370 269.6785 15.31706961 38895
STARLINK-35487          
1 66262U 25245AE  26183.78117230  .00008514  00000+0  28586-3 0  9998
2 66262  53.1580 108.8629 0001685  87.1828 272.9367 15.31694329 38835
STARLINK-35801          
1 66265U 25247A   26183.82170208  .00028429  00000+0  84982-3 0  9991
2 66265  53.1586  14.3510 0000852  72.8959 287.2137 15.34381998 38691
STARLINK-35056          
1 66266U 25247B   26183.83336806  .00005844  00000+0  18407-3 0  9996
2 66266  53.1592  16.4529 0001579  96.4865 313.2498 15.34379651  5852
STARLINK-35550          
1 66267U 25247C   26183.82380215  .00024414  00000+0  73211-3 0  9997
2 66267  53.1557  14.3180 0001012 111.4415 248.6696 15.34366773 38695
STARLINK-35069          
1 66268U 25247D   26183.83482500  .00053015  00000+0  15683-2 0  9996
2 66268  53.1590  15.8522 0000558  91.0704 269.0362 15.34417699 38676
STARLINK-34910          
1 66269U 25247E   26183.84274249  .00041472  00000+0  12328-2 0  9994
2 66269  53.1590  14.4372 0001011  67.2609 292.8501 15.34373490 38690
STARLINK-35757          
1 66270U 25247F   26183.83222288  .00028012  00000+0  83773-3 0  9999
2 66270  53.1609  14.4160 0000338  81.6380 278.4661 15.34376520 38745
